NORAD_CAT_ID,OBJECT_NAME,OBJECT_TYPE,EPOCH,MEAN_MOTION,ECCENTRICITY,INCLINATION,RA_OF_ASC_NODE,ARG_OF_PERICENTER,MEAN_ANOMALY,BSTAR,MEAN_MOTION_DOT,MEAN_MOTION_DDOT,TLE_LINE0,TLE_LINE1,TLE_LINE2,SEMIMAJOR_AXIS,PERIOD,APOGEE,PERIGEE,DECAYED
53848.0,STARLINK-4780,PAYLOAD,2024-04-24 10:02:27,15.08855388,0.0001272,53.217,125.6662,98.16,261.9536,4.4964e-05,4.28e-06,0.0,0 STARLINK-4780,1 53848U 22114AG  24115.41837256  .00000428  00000-0  44964-4 0  9992,2 53848  53.2170 125.6662 0001272  98.1600 261.9536 15.08855388 89675,6917.833,95.437,540.578,538.818,0.0
53848.0,STARLINK-4780,PAYLOAD,2024-04-25 05:07:05,15.08839721,0.0001388,53.2172,122.0967,82.7153,277.3997,3.1853e-05,2.19e-06,0.0,0 STARLINK-4780,1 53848U 22114AG  24116.21325992  .00000219  00000-0  31853-4 0  9991,2 53848  53.2172 122.0967 0001388  82.7153 277.3997 15.08839721 89255,6917.881,95.438,540.706,538.786,0.0
53848.0,STARLINK-4780,PAYLOAD,2024-04-25 06:42:28,15.0883855,0.000133,53.217,121.7994,86.5132,273.6012,1.8651e-05,9e-08,0.0,0 STARLINK-4780,1 53848U 22114AG  24116.27950063  .00000009  00000-0  18651-4 0  9998,2 53848  53.2170 121.7994 0001330  86.5132 273.6012 15.08838550 89802,6917.885,95.438,540.67,538.83,0.0
53848.0,STARLINK-4780,PAYLOAD,2024-04-26 09:44:01,15.08844255,0.0001397,53.2164,116.7434,92.2593,267.8559,1.647e-05,-2.6e-07,0.0,0 STARLINK-4780,1 53848U 22114AG  24117.40557490 -.00000026  00000-0  16470-4 0  9998,2 53848  53.2164 116.7434 0001397  92.2593 267.8559 15.08844255 89435,6917.867,95.437,540.699,538.766,0.0
53848.0,STARLINK-4780,PAYLOAD,2024-04-27 09:34:48,15.08843617,0.0001297,53.2161,112.2838,89.4107,270.7033,0.00011512,1.545e-05,0.0,0 STARLINK-4780,1 53848U 22114AG  24118.39917065  .00001545  00000-0  11512-3 0  9992,2 53848  53.2161 112.2838 0001297  89.4107 270.7033 15.08843617 90128,6917.869,95.437,540.632,538.837,0.0
53848.0,STARLINK-4780,PAYLOAD,2024-04-28 06:14:50,15.08833286,0.000121,53.2158,108.4181,76.8146,283.2981,-4.9049e-05,-1.068e-05,0.0,0 STARLINK-4780,1 53848U 22114AG  24119.26030334 -.00001068  00000-0 -49049-4 0  9993,2 53848  53.2158 108.4181 0001210  76.8146 283.2981 15.08833286 89715,6917.901,95.438,540.603,538.929,0.0
53848.0,STARLINK-4780,PAYLOAD,2024-04-28 15:47:09,15.08834256,0.0001229,53.2161,106.6349,77.6983,282.4147,-5.0698e-05,-1.094e-05,0.0,0 STARLINK-4780,1 53848U 22114AG  24119.65774348 -.00001094  00000-0 -50698-4 0  9997,2 53848  53.2161 106.6349 0001229  77.6983 282.4147 15.08834256 90314,6917.898,95.438,540.613,538.913,0.0
53848.0,STARLINK-4780,PAYLOAD,2024-04-29 06:05:37,15.08835623,0.0001238,53.2173,103.9616,88.4025,271.7109,-5.9679e-06,-3.83e-06,0.0,0 STARLINK-4780,1 53848U 22114AG  24120.25390343 -.00000383  00000-0 -59679-5 0  9993,2 53848  53.2173 103.9616 0001238  88.4025 271.7109 15.08835623 90409,6917.894,95.438,540.615,538.902,0.0
53848.0,STARLINK-4780,PAYLOAD,2024-04-29 15:37:55,15.08843899,0.0001275,53.2175,102.177,85.0614,275.0524,6.3811e-06,-1.86e-06,0.0,0 STARLINK-4780,1 53848U 22114AG  24120.65133821 -.00000186  00000-0  63811-5 0  9996,2 53848  53.2175 102.1770 0001275  85.0614 275.0524 15.08843899 89928,6917.868,95.437,540.615,538.851,0.0
53848.0,STARLINK-4780,PAYLOAD,2024-04-30 04:21:01,15.08831508,0.0001407,53.2179,99.7987,85.377,274.7383,0.00011155,1.487e-05,0.0,0 STARLINK-4780,1 53848U 22114AG  24121.18126540  .00001487  00000-0  11155-3 0  9991,2 53848  53.2179  99.7987 0001407  85.3770 274.7383 15.08831508 90000,6917.906,95.438,540.745,538.798,0.0
53848.0,STARLINK-4780,PAYLOAD,2024-04-30 05:56:24,15.08832636,0.0001408,53.218,99.5013,84.878,275.2373,0.00011893,1.605e-05,0.0,0 STARLINK-4780,1 53848U 22114AG  24121.24750487  .00001605  00000-0  11893-3 0  9992,2 53848  53.2180  99.5013 0001408  84.8780 275.2373 15.08832636 90554,6917.903,95.438,540.742,538.794,0.0
53848.0,STARLINK-4780,PAYLOAD,2024-04-30 15:28:43,15.08837117,0.0001425,53.2181,97.7176,87.4415,272.674,0.0001281,1.751e-05,0.0,0 STARLINK-4780,1 53848U 22114AG  24121.64494327  .00001751  00000-0  12810-3 0  9996,2 53848  53.2181  97.7176 0001425  87.4415 272.6740 15.08837117 90613,6917.889,95.438,540.74,538.768,0.0
53848.0,STARLINK-4780,PAYLOAD,2024-05-01 05:47:11,15.08838374,0.0001665,53.2185,95.0414,91.3941,268.7242,1.6532e-05,-2.5e-07,0.0,0 STARLINK-4780,1 53848U 22114AG  24122.24110804 -.00000025  00000-0  16532-4 0  9998,2 53848  53.2185  95.0414 0001665  91.3941 268.7242 15.08838374 90166,6917.885,95.438,540.902,538.599,0.0
53848.0,STARLINK-4780,PAYLOAD,2024-05-01 21:41:02,15.0884273,0.0001472,53.2181,92.068,85.2717,274.8443,6.7045e-05,7.79e-06,0.0,0 STARLINK-4780,1 53848U 22114AG  24122.90350207  .00000779  00000-0  67045-4 0  9994,2 53848  53.2181  92.0680 0001472  85.2717 274.8443 15.08842730 90806,6917.872,95.437,540.755,538.719,0.0
53848.0,STARLINK-4780,PAYLOAD,2024-05-02 05:37:58,15.08842173,0.0001355,53.2173,90.5779,91.2942,268.8205,2.6958e-05,1.41e-06,0.0,0 STARLINK-4780,1 53848U 22114AG  24123.23470306  .00000141  00000-0  26958-4 0  9995,2 53848  53.2173  90.5779 0001355  91.2942 268.8205 15.08842173 90851,6917.874,95.437,540.676,538.801,0.0
53848.0,STARLINK-4780,PAYLOAD,2024-05-02 15:10:16,15.08846043,0.0001358,53.2176,88.7935,91.6513,268.4634,4.4107e-05,4.14e-06,0.0,0 STARLINK-4780,1 53848U 22114AG  24123.63213873  .00000414  00000-0  44107-4 0  9992,2 53848  53.2176  88.7935 0001358  91.6513 268.4634 15.08846043 90377,6917.862,95.437,540.666,538.787,0.0
53848.0,STARLINK-4780,PAYLOAD,2024-05-03 03:53:22,15.08837626,0.0001447,53.2183,86.4141,95.8311,264.2847,4.9574e-05,5.01e-06,0.0,0 STARLINK-4780,1 53848U 22114AG  24124.16206366  .00000501  00000-0  49574-4 0  9990,2 53848  53.2183  86.4141 0001447  95.8311 264.2847 15.08837626 90456,6917.888,95.438,540.754,538.752,0.0
53848.0,STARLINK-4780,PAYLOAD,2024-05-03 07:04:08,15.08845873,0.0001503,53.2173,85.8179,99.1676,260.9486,2.9013e-05,1.74e-06,0.0,0 STARLINK-4780,1 53848U 22114AG  24124.29453877  .00000174  00000-0  29013-4 0  9997,2 53848  53.2173  85.8179 0001503  99.1676 260.9486 15.08845873 90470,6917.862,95.437,540.767,538.688,0.0
53848.0,STARLINK-4780,PAYLOAD,2024-05-03 15:01:03,15.08845164,0.0001487,53.2168,84.3312,98.2542,261.8618,8.8883e-06,-1.47e-06,0.0,0 STARLINK-4780,1 53848U 22114AG  24124.62573855 -.00000147  00000-0  88883-5 0  9995,2 53848  53.2168  84.3312 0001487  98.2542 261.8618 15.08845164 91066,6917.865,95.437,540.758,538.701,0.0
53848.0,STARLINK-4780,PAYLOAD,2024-05-04 03:44:10,15.08818682,0.0001449,53.2175,81.9553,85.5485,274.5673,-0.00011158,-2.062e-05,0.0,0 STARLINK-4780,1 53848U 22114AG  24125.15568276 -.00002062  00000-0 -11158-3 0  9993,2 53848  53.2175  81.9553 0001449  85.5485 274.5673 15.08818682 90603,6917.946,95.439,540.813,538.808,0.0
53848.0,STARLINK-4780,PAYLOAD,2024-05-05 03:34:57,15.08840648,0.0001518,53.2183,77.4962,84.452,275.6645,-3.1764e-05,-7.93e-06,0.0,0 STARLINK-4780,1 53848U 22114AG  24126.14927442 -.00000793  00000-0 -31764-4 0  9992,2 53848  53.2183  77.4962 0001518  84.4520 275.6645 15.08840648 90755,6917.878,95.438,540.794,538.693,0.0
53848.0,STARLINK-4780,PAYLOAD,2024-05-06 12:58:01,15.08856301,0.0001576,53.219,71.2522,89.3039,270.8134,0.00035113,5.307e-05,0.0,0 STARLINK-4780,1 53848U 22114AG  24127.54029594  .00005307  00000-0  35113-3 0  9993,2 53848  53.2190  71.2522 0001576  89.3039 270.8134 15.08856301 90966,6917.831,95.437,540.786,538.605,0.0
53848.0,STARLINK-4780,PAYLOAD,2024-05-07 03:16:32,15.08830561,0.0001551,53.218,68.5776,108.5124,251.6037,-7.4597e-05,-1.475e-05,0.0,0 STARLINK-4780,1 53848U 22114AG  24128.13648456 -.00001475  00000-0 -74597-4 0  9997,2 53848  53.2180  68.5776 0001551 108.5124 251.6037 15.08830561 91057,6917.909,95.438,540.847,538.701,0.0
53848.0,STARLINK-4780,PAYLOAD,2024-05-07 12:48:50,15.0884156,0.0001604,53.219,66.7953,109.4951,250.6215,1.2077e-05,-9.6e-07,0.0,0 STARLINK-4780,1 53848U 22114AG  24128.53391664 -.00000096  00000-0  12077-4 0  9999,2 53848  53.2190  66.7953 0001604 109.4951 250.6215 15.08841560 91117,6917.876,95.437,540.85,538.631,0.0
53848.0,STARLINK-4780,PAYLOAD,2024-05-08 06:18:04,15.08850074,0.0001343,53.2167,63.5181,112.2216,247.8918,6.1666e-05,6.94e-06,0.0,0 STARLINK-4780,1 53848U 22114AG  24129.26254664  .00000694  00000-0  61666-4 0  9999,2 53848  53.2167  63.5181 0001343 112.2216 247.8918 15.08850074 91225,6917.85,95.437,540.644,538.786,0.0
53848.0,STARLINK-4780,PAYLOAD,2024-05-09 04:33:31,15.08789898,0.0001156,53.2171,59.3587,131.1309,228.9783,-0.00046988,-7.748e-05,0.0,0 STARLINK-4780,1 53848U 22114AG  24130.18994861 -.00007748  00000-0 -46988-3 0  9990,2 53848  53.2171  59.3587 0001156 131.1309 228.9783 15.08789898 91368,6918.034,95.441,540.698,539.099,0.0
53848.0,STARLINK-4780,PAYLOAD,2024-05-09 12:30:25,15.08841895,7.7e-05,53.2173,57.8719,106.1115,253.9962,0.00031986,4.807e-05,0.0,0 STARLINK-4780,1 53848U 22114AG  24130.52112900  .00004807  00000-0  31986-3 0  9997,2 53848  53.2173  57.8719 0000770 106.1115 253.9962 15.08841895 91417,6917.875,95.437,540.272,539.207,0.0
53848.0,STARLINK-4780,PAYLOAD,2024-05-10 01:13:29,15.08872113,0.0001188,53.2171,55.492,125.2197,234.8907,0.00050524,7.769e-05,0.0,0 STARLINK-4780,1 53848U 22114AG  24131.05103542  .00007769  00000-0  50524-3 0  9997,2 53848  53.2171  55.4920 0001188 125.2197 234.8907 15.08872113 91491,6917.782,95.436,540.469,538.825,0.0
53848.0,STARLINK-4780,PAYLOAD,2024-05-10 12:21:10,15.08885379,9.63e-05,53.2178,53.4084,82.3918,277.7183,0.00075638,0.00011785,0.0,0 STARLINK-4780,1 53848U 22114AG  24131.51470092  .00011785  00000-0  75638-3 0  9991,2 53848  53.2178  53.4084 0000963  82.3918 277.7183 15.08885379 92100,6917.742,95.435,540.273,538.941,0.0
53848.0,STARLINK-4780,PAYLOAD,2024-05-10 18:42:44,15.08839432,0.0001549,53.218,52.2214,79.9146,280.2021,0.00029016,4.333e-05,0.0,0 STARLINK-4780,1 53848U 22114AG  24131.77968580  .00004333  00000-0  29016-3 0  9993,2 53848  53.2180  52.2214 0001549  79.9146 280.2021 15.08839432 91604,6917.882,95.438,540.819,538.676,0.0
